OBJECT_NAME,OBJECT_ID,EPOCH,MEAN_MOTION,ECCENTRICITY,INCLINATION,RA_OF_ASC_NODE,ARG_OF_PERICENTER,MEAN_ANOMALY,EPHEMERIS_TYPE,CLASSIFICATION_TYPE,NORAD_CAT_ID,ELEMENT_SET_NO,REV_AT_EPOCH,BSTAR,MEAN_MOTION_DOT,MEAN_MOTION_DDOT
ISS OBJECT YC,1998-067YC,2026-03-01T09:53:56.869728,15.51728286,.0007665,51.6316,112.8884,122.7439,237.4290,0,U,67686,999,350,.89126E-3,.54052E-3,0
LEOPARD,1998-067YD,2026-03-01T17:44:03.576192,15.51238778,.0007663,51.6315,111.3180,127.4895,232.6792,0,U,67687,999,347,.73456E-3,.4363E-3,0
ISS OBJECT YE,1998-067YE,2026-03-01T09:55:55.286976,15.51553933,.0007609,51.6318,112.8976,123.4438,236.7280,0,U,67688,999,342,.83355E-3,.50179E-3,0
CREW DRAGON 12,2026-031A,2026-03-01T13:48:17.544384,15.48382986,.0008284,51.6320,112.4722,146.1756,213.9762,0,U,67796,999,55481,.19202E-3,.9927E-4,0